[{"OBJECT_NAME":"ONEWEB-0610","OBJECT_ID":"2022-166AH","EPOCH":"2026-03-09T13:44:11.022720","MEAN_MOTION":13.2182492,"ECCENTRICITY":9.69e-5,"INCLINATION":87.9162,"RA_OF_ASC_NODE":263.847,"ARG_OF_PERICENTER":85.3496,"MEAN_ANOMALY":274.7749,"EPHEMERIS_TYPE":0,"CLASSIFICATION_TYPE":"U","NORAD_CAT_ID":54673,"ELEMENT_SET_NO":999,"REV_AT_EPOCH":15829,"BSTAR":-0.00029177,"MEAN_MOTION_DOT":-1.07e-6,"MEAN_MOTION_DDOT":0},{"OBJECT_NAME":"DIAPASON (D1-A)","OBJECT_ID":"1966-013A","EPOCH":"2026-03-09T00:43:39.063072","MEAN_MOTION":12.66429063,"ECCENTRICITY":0.11576775,"INCLINATION":34.0899,"RA_OF_ASC_NODE":31.7007,"ARG_OF_PERICENTER":132.081,"MEAN_ANOMALY":238.4274,"EPHEMERIS_TYPE":0,"CLASSIFICATION_TYPE":"U","NORAD_CAT_ID":2016,"ELEMENT_SET_NO":999,"REV_AT_EPOCH":72774,"BSTAR":0.00029088113,"MEAN_MOTION_DOT":1.01e-5,"MEAN_MOTION_DDOT":0}]
